NORAD_CAT_ID,EPOCH,MEAN_MOTION,ECCENTRICITY,INCLINATION,RA_OF_ASC_NODE,ARG_OF_PERICENTER,MEAN_ANOMALY,SEMIMAJOR_AXIS,PERIOD,APOGEE,PERIGEE
23764,2019-11-24 14:11:00,14.30092167,0.0060714,74.2058,193.8974,22.7256,337.6561,7169.559,100.692,834.954,747.895
23764,2019-11-26 14:52:00,14.30100145,0.0060976,74.2057,190.2472,18.6945,341.6424,7169.533,100.692,835.115,747.681
23787,2019-11-24 11:48:00,14.34216171,0.0003093,86.3963,99.2694,83.8666,276.2882,7155.809,100.403,779.887,775.461
23787,2019-11-25 11:15:00,14.3421627,0.0003068,86.3964,98.8611,82.8153,277.3392,7155.809,100.403,779.869,775.478
23899,2019-11-27 22:37:00,4.20100094,0.4728076,61.922,318.4047,52.3209,351.905,16224.325,342.775,17517.175,2175.206
23904,2019-11-26 22:24:00,13.27616535,0.0190041,90.3663,292.2457,122.0774,297.6734,7533.903,108.465,1298.943,1012.593
24026,2019-11-26 14:11:00,14.00021257,0.0116948,99.1559,1.5624,213.4263,300.9691,7271.858,102.855,978.766,808.68
24061,2019-11-26 22:08:00,14.1782522,0.0170207,73.993,132.1583,183.2388,330.7852,7210.854,101.563,955.452,709.985
24081,2019-11-24 14:40:00,4.33372286,0.5799219,64.6685,164.9837,0.9424,359.8604,15891.36,332.277,18728.973,297.477
24116,2019-11-24 22:48:00,14.28541997,0.0125481,99.1819,326.0214,58.0843,332.8332,7174.745,100.802,886.639,706.581
24120,2019-11-26 16:57:00,13.05916415,0.0219251,99.7819,56.9859,112.3396,42.9208,7617.133,110.267,1406.005,1071.992
24186,2019-11-25 14:41:00,13.12953519,0.0958033,97.1416,326.2147,20.6038,343.1123,7589.892,109.676,1938.893,484.62
24238,2019-11-25 12:48:00,2.00568102,0.019271,53.1656,135.8151,263.1211,100.5391,26559.95,717.96,20693.652,19669.978
24241,2019-11-24 21:59:00,12.48017368,0.0028608,102.5518,310.7037,317.7939,69.4777,7850.935,115.383,1495.26,1450.34
24241,2019-11-26 22:05:00,12.48017391,0.0028578,102.5515,312.7994,314.1165,73.8668,7850.935,115.383,1495.237,1450.364
24246,2019-11-24 22:45:00,10.2421643,0.2150359,65.5347,296.6459,279.6635,56.9472,8956.548,140.595,4504.392,652.434
24246,2019-11-25 22:11:00,10.24211202,0.2145018,65.5335,295.297,279.5333,57.1163,8956.578,140.596,4499.646,657.241
24250,2019-11-25 15:17:00,12.15632588,0.0201088,74.0228,150.6081,25.6911,46.7031,7989.757,118.456,1772.287,1450.958
24250,2019-11-27 23:01:00,12.15632805,0.0201132,74.0228,147.7129,22.4183,130.5503,7989.756,118.456,1772.321,1450.922
24256,2019-11-25 22:06:00,4.31250303,0.5733074,17.5456,281.2203,28.4074,353.4528,15943.447,333.912,18705.808,424.816
24256,2019-11-26 03:39:00,4.31256813,0.5733014,17.5453,281.0221,28.775,353.3638,15943.286,333.907,18705.46,424.843
24314,2019-11-25 14:39:00,13.86057513,0.0068667,82.7071,149.9233,105.7691,325.6461,7320.616,103.891,992.75,892.213
24347,2019-11-26 14:18:00,13.8968382,0.005382,82.6781,25.3734,234.9513,278.938,7307.876,103.62,969.072,890.41
24464,2019-11-24 13:28:00,14.88578108,0.0044315,98.9779,333.5347,219.1501,140.6504,6980.514,96.736,633.313,571.445
24468,2019-11-21 23:26:00,15.019143,0.0,97.671,163.28799999999998,0.0,126.321,6939.130783,95.87799999999999,560.993783,560.993783
24468,2019-11-22 05:23:00,15.019143,0.0,97.67,163.532,0.0,25.070999999999998,6939.130783,95.87799999999999,560.993783,560.993783
24468,2019-11-22 12:55:00,15.019143,0.0,97.67,163.842,0.0,280.07099999999997,6939.130783,95.87799999999999,560.993783,560.993783
24468,2019-11-22 22:42:00,15.019143,0.0,97.669,164.24400000000003,0.0,321.32099999999997,6939.130783,95.87799999999999,560.993783,560.993783
24468,2019-11-23 06:28:00,15.019143,0.0,97.66799999999999,164.563,0.0,268.82099999999997,6939.130783,95.87799999999999,560.993783,560.993783
24468,2019-11-23 14:50:00,15.019143,0.0,97.66799999999999,164.90599999999998,0.0,351.32199999999995,6939.130783,95.87799999999999,560.993783,560.993783
24468,2019-11-23 19:35:00,15.019143,0.0,97.667,165.101,0.0,340.07199999999995,6939.130783,95.87799999999999,560.993783,560.993783
24468,2019-11-24 06:44:00,15.019143,0.0,97.667,165.55900000000003,0.0,328.82199999999995,6939.130783,95.87799999999999,560.993783,560.993783
24468,2019-11-24 12:47:00,15.019143,0.0,97.666,165.808,0.0,250.072,6939.130783,95.87799999999999,560.993783,560.993783
24468,2019-11-24 22:03:00,15.019143,0.0,97.665,166.188,0.0,175.072,6939.130783,95.87799999999999,560.993783,560.993783
24468,2019-11-25 06:03:00,15.019143,0.0,97.665,166.517,0.0,175.072,6939.130783,95.87799999999999,560.993783,560.993783
24468,2019-11-25 14:53:00,15.019143,0.0,97.664,166.88,0.0,2.573,6939.130783,95.87799999999999,560.993783,560.993783
24468,2019-11-25 20:41:00,15.019143,0.0,97.664,167.118,0.0,227.57299999999998,6939.130783,95.87799999999999,560.993783,560.993783
24468,2019-11-26 03:33:00,15.019143,0.0,97.663,167.4,0.0,332.57300000000004,6939.130783,95.87799999999999,560.993783,560.993783
24468,2019-11-26 12:19:00,15.019143,0.0,97.662,167.76,0.0,145.07299999999998,6939.130783,95.87799999999999,560.993783,560.993783
24468,2019-11-26 22:35:00,15.019143,0.0,97.662,168.18099999999998,0.0,295.073,6939.130783,95.87799999999999,560.993783,560.993783
24468,2019-11-27 06:05:00,15.019143,0.0,97.661,168.489,0.0,182.57299999999998,6939.130783,95.87799999999999,560.993783,560.993783
24468,2019-11-27 13:31:00,15.019143,0.0,97.661,168.795,0.0,55.073,6939.130783,95.87799999999999,560.993783,560.993783
24468,2019-11-27 22:21:00,15.019143,0.0,97.66,169.158,0.0,242.57299999999998,6939.130783,95.87799999999999,560.993783,560.993783
24468,2019-11-28 06:48:00,15.019143,0.0,97.65899999999999,169.505,0.0,343.824,6939.130783,95.87799999999999,560.993783,560.993783
24468,2019-11-28 15:10:00,15.019143,0.0,97.65899999999999,169.84799999999998,0.0,66.324,6939.130783,95.87799999999999,560.993783,560.993783
24468,2019-11-28 20:23:00,15.019143,0.0,97.65799999999999,170.062,0.0,160.07399999999998,6939.130783,95.87799999999999,560.993783,560.993783
24477,2019-11-25 20:59:00,13.72168665,0.0011292,65.8245,80.9841,351.2447,146.2266,7369.932,104.943,1000.119,983.475
24489,2019-11-26 12:49:00,2.15276096,0.702048,18.9881,123.0461,349.6544,1.148,25335.995,668.908,36744.945,1170.775
24497,2019-11-22 22:07:00,14.0441382,0.0024542,82.5397,30.8722,53.4039,306.9385,7256.687,102.533,896.362,860.743
24514,2019-11-25 02:19:00,3.87175356,0.5942548,54.9244,248.9411,28.6897,353.9326,17131.551,371.924,20933.923,572.909
24527,2019-11-26 21:04:00,15.02486026,0.0095789,97.7927,124.2652,186.5478,173.4503,6937.37,95.841,625.687,492.782
24615,2019-11-25 10:59:00,1.87697064,0.0037952,55.1272,18.2076,35.5493,113.3627,27760.685,767.193,21487.908,21277.193
24615,2019-11-27 20:36:00,1.87697042,0.0037958,55.1277,18.1234,35.5854,295.376,27760.687,767.193,21487.926,21277.178
24627,2019-11-27 18:34:00,3.5552181,0.6316048,29.4621,192.2277,190.9279,143.293,18133.891,405.038,23209.209,302.303
24711,2019-11-26 14:56:00,14.83615377,0.0020089,82.5445,212.6254,118.1073,242.2176,6996.072,97.06,631.991,603.882
24834,2019-11-26 22:33:00,14.15861889,0.0040267,98.7756,319.0658,217.5361,142.3,7217.518,101.704,868.446,810.32
24839,2019-11-24 22:07:00,14.90362649,0.0187612,99.0404,138.0586,132.3155,229.413,6974.94,96.62,727.664,465.947
24839,2019-11-26 22:27:00,14.90367517,0.0187669,99.0404,140.3629,125.8985,235.9812,6974.925,96.62,727.688,465.893
24847,2019-11-28 19:11:00,1.01367998,0.0017703,13.3334,337.925,101.657,262.1681,41860.196,1420.566,35556.166,35407.956
24863,2019-11-21 21:30:00,15.019143,0.0,97.74,111.772,0.0,164.4,6939.130783,95.87799999999999,560.993783,560.993783
24863,2019-11-22 06:38:00,15.019143,0.0,97.74,112.147,0.0,59.401,6939.130783,95.87799999999999,560.993783,560.993783
24863,2019-11-22 15:29:00,15.019143,0.0,97.74,112.51,0.0,250.65099999999998,6939.130783,95.87799999999999,560.993783,560.993783
24863,2019-11-22 20:50:00,15.019143,0.0,97.74,112.73,0.0,14.402000000000001,6939.130783,95.87799999999999,560.993783,560.993783
24863,2019-11-23 05:43:00,15.019143,0.0,97.73899999999999,113.095,0.0,213.15200000000002,6939.130783,95.87799999999999,560.993783,560.993783
24863,2019-11-23 11:51:00,15.019143,0.0,97.73899999999999,113.34700000000001,0.0,153.153,6939.130783,95.87799999999999,560.993783,560.993783
24863,2019-11-23 20:47:00,15.019143,0.0,97.73899999999999,113.714,0.0,3.153,6939.130783,95.87799999999999,560.993783,560.993783
24863,2019-11-24 04:35:00,15.019143,0.0,97.73899999999999,114.03399999999999,0.0,318.154,6939.130783,95.87799999999999,560.993783,560.993783
24863,2019-11-24 14:20:00,15.019143,0.0,97.738,114.435,0.0,351.905,6939.130783,95.87799999999999,560.993783,560.993783
24863,2019-11-24 22:01:00,15.019143,0.0,97.738,114.75,0.0,280.655,6939.130783,95.87799999999999,560.993783,560.993783
24863,2019-11-25 05:07:00,15.019143,0.0,97.738,115.042,0.0,78.156,6939.130783,95.87799999999999,560.993783,560.993783
24863,2019-11-25 14:14:00,15.019143,0.0,97.738,115.416,0.0,329.406,6939.130783,95.87799999999999,560.993783,560.993783
24863,2019-11-25 21:34:00,15.019143,0.0,97.73700000000001,115.71799999999999,0.0,179.407,6939.130783,95.87799999999999,560.993783,560.993783
24863,2019-11-26 04:41:00,15.019143,0.0,97.73700000000001,116.01,0.0,340.657,6939.130783,95.87799999999999,560.993783,560.993783
24863,2019-11-26 13:50:00,15.019143,0.0,97.73700000000001,116.38600000000001,0.0,239.408,6939.130783,95.87799999999999,560.993783,560.993783
24863,2019-11-26 22:20:00,15.019143,0.0,97.736,116.735,0.0,351.909,6939.130783,95.87799999999999,560.993783,560.993783
24863,2019-11-27 06:23:00,15.019143,0.0,97.736,117.066,0.0,3.159,6939.130783,95.87799999999999,560.993783,560.993783
24863,2019-11-27 13:32:00,15.019143,0.0,97.736,117.359,0.0,171.91,6939.130783,95.87799999999999,560.993783,560.993783
24863,2019-11-27 21:05:00,15.019143,0.0,97.736,117.67,0.0,70.66,6939.130783,95.87799999999999,560.993783,560.993783
24863,2019-11-28 06:49:00,15.019143,0.0,97.735,118.069,0.0,100.661,6939.130783,95.87799999999999,560.993783,560.993783
24863,2019-11-28 12:04:00,15.019143,0.0,97.735,118.285,0.0,201.91099999999997,6939.130783,95.87799999999999,560.993783,560.993783
